{"fetched_at":"2026-03-29T16:36:15Z","count":15609,"tles":[{"name":"STARLINK-35223","line1":"1 65494U 25198C   26087.72322523  .00032022  00000+0  10881-2 0  9990","line2":"2 65494  53.1599 182.6256 0000882  91.8860 268.2242 15.30217105 31535","category":"Starlink"}]}